<?xml version="1.0" encoding="UTF-8"?>
<gpx version="1.1" creator="fieldmemo make_samples.py (synthetic)" xmlns="http://www.topografix.com/GPX/1/1">
<trk><name>Synthetic demo loop (not a real route)</name><trkseg>
<trkpt lat="53.371200" lon="-1.816500"><ele>260.0</ele><time>2026-10-08T09:00:00Z</time></trkpt>
<trkpt lat="53.371447" lon="-1.816431"><ele>260.0</ele><time>2026-10-08T09:00:15Z</time></trkpt>
<trkpt lat="53.371693" lon="-1.816358"><ele>260.0</ele><time>2026-10-08T09:00:30Z</time></trkpt>
<trkpt lat="53.371938" lon="-1.816281"><ele>260.1</ele><time>2026-10-08T09:00:45Z</time></trkpt>
<trkpt lat="53.372182" lon="-1.816201"><ele>260.2</ele><time>2026-10-08T09:01:00Z</time></trkpt>
<trkpt lat="53.372423" lon="-1.816117"><ele>260.3</ele><time>2026-10-08T09:01:15Z</time></trkpt>
<trkpt lat="53.372662" lon="-1.816030"><ele>260.4</ele><time>2026-10-08T09:01:30Z</time></trkpt>
<trkpt lat="53.372898" lon="-1.815941"><ele>260.5</ele><time>2026-10-08T09:01:45Z</time></trkpt>
<trkpt lat="53.373130" lon="-1.815848"><ele>260.6</ele><time>2026-10-08T09:02:00Z</time></trkpt>
<trkpt lat="53.373358" lon="-1.815752"><ele>260.8</ele><time>2026-10-08T09:02:15Z</time></trkpt>
<trkpt lat="53.373581" lon="-1.815654"><ele>261.0</ele><time>2026-10-08T09:02:30Z</time></trkpt>
<trkpt lat="53.373800" lon="-1.815553"><ele>261.2</ele><time>2026-10-08T09:02:45Z</time></trkpt>
<trkpt lat="53.374013" lon="-1.815449"><ele>261.4</ele><time>2026-10-08T09:03:00Z</time></trkpt>
<trkpt lat="53.374221" lon="-1.815344"><ele>261.7</ele><time>2026-10-08T09:03:15Z</time></trkpt>
<trkpt lat="53.374422" lon="-1.815236"><ele>262.0</ele><time>2026-10-08T09:03:30Z</time></trkpt>
<trkpt lat="53.374618" lon="-1.815126"><ele>262.3</ele><time>2026-10-08T09:03:45Z</time></trkpt>
<trkpt lat="53.374806" lon="-1.815014"><ele>262.6</ele><time>2026-10-08T09:04:00Z</time></trkpt>
<trkpt lat="53.374988" lon="-1.814901"><ele>262.9</ele><time>2026-10-08T09:04:15Z</time></trkpt>
<trkpt lat="53.375163" lon="-1.814785"><ele>263.2</ele><time>2026-10-08T09:04:30Z</time></trkpt>
<trkpt lat="53.375331" lon="-1.814668"><ele>263.6</ele><time>2026-10-08T09:04:45Z</time></trkpt>
<trkpt lat="53.375492" lon="-1.814550"><ele>264.0</ele><time>2026-10-08T09:05:00Z</time></trkpt>
<trkpt lat="53.375645" lon="-1.814430"><ele>264.4</ele><time>2026-10-08T09:05:15Z</time></trkpt>
<trkpt lat="53.375790" lon="-1.814309"><ele>264.8</ele><time>2026-10-08T09:05:30Z</time></trkpt>
<trkpt lat="53.375929" lon="-1.814187"><ele>265.3</ele><time>2026-10-08T09:05:45Z</time></trkpt>
<trkpt lat="53.376059" lon="-1.814063"><ele>265.7</ele><time>2026-10-08T09:06:00Z</time></trkpt>
<trkpt lat="53.376183" lon="-1.813939"><ele>266.2</ele><time>2026-10-08T09:06:15Z</time></trkpt>
<trkpt lat="53.376299" lon="-1.813814"><ele>266.7</ele><time>2026-10-08T09:06:30Z</time></trkpt>
<trkpt lat="53.376408" lon="-1.813687"><ele>267.2</ele><time>2026-10-08T09:06:45Z</time></trkpt>
<trkpt lat="53.376510" lon="-1.813560"><ele>267.8</ele><time>2026-10-08T09:07:00Z</time></trkpt>
<trkpt lat="53.376605" lon="-1.813433"><ele>268.3</ele><time>2026-10-08T09:07:15Z</time></trkpt>
<trkpt lat="53.376694" lon="-1.813305"><ele>268.9</ele><time>2026-10-08T09:07:30Z</time></trkpt>
<trkpt lat="53.376776" lon="-1.813176"><ele>269.5</ele><time>2026-10-08T09:07:45Z</time></trkpt>
<trkpt lat="53.376853" lon="-1.813046"><ele>270.1</ele><time>2026-10-08T09:08:00Z</time></trkpt>
<trkpt lat="53.376924" lon="-1.812916"><ele>270.7</ele><time>2026-10-08T09:08:15Z</time></trkpt>
<trkpt lat="53.376989" lon="-1.812786"><ele>271.4</ele><time>2026-10-08T09:08:30Z</time></trkpt>
<trkpt lat="53.377050" lon="-1.812655"><ele>272.1</ele><time>2026-10-08T09:08:45Z</time></trkpt>
<trkpt lat="53.377106" lon="-1.812524"><ele>272.7</ele><time>2026-10-08T09:09:00Z</time></trkpt>
<trkpt lat="53.377158" lon="-1.812393"><ele>273.4</ele><time>2026-10-08T09:09:15Z</time></trkpt>
<trkpt lat="53.377206" lon="-1.812261"><ele>274.2</ele><time>2026-10-08T09:09:30Z</time></trkpt>
<trkpt lat="53.377251" lon="-1.812129"><ele>274.9</ele><time>2026-10-08T09:09:45Z</time></trkpt>
<trkpt lat="53.377294" lon="-1.811997"><ele>275.6</ele><time>2026-10-08T09:10:00Z</time></trkpt>
<trkpt lat="53.377334" lon="-1.811864"><ele>276.4</ele><time>2026-10-08T09:10:15Z</time></trkpt>
<trkpt lat="53.377372" lon="-1.811731"><ele>277.2</ele><time>2026-10-08T09:10:30Z</time></trkpt>
<trkpt lat="53.377408" lon="-1.811598"><ele>278.0</ele><time>2026-10-08T09:10:45Z</time></trkpt>
<trkpt lat="53.377444" lon="-1.811464"><ele>278.8</ele><time>2026-10-08T09:11:00Z</time></trkpt>
<trkpt lat="53.377480" lon="-1.811331"><ele>279.6</ele><time>2026-10-08T09:11:15Z</time></trkpt>
<trkpt lat="53.377515" lon="-1.811196"><ele>280.5</ele><time>2026-10-08T09:11:30Z</time></trkpt>
<trkpt lat="53.377551" lon="-1.811062"><ele>281.3</ele><time>2026-10-08T09:11:45Z</time></trkpt>
<trkpt lat="53.377588" lon="-1.810927"><ele>282.2</ele><time>2026-10-08T09:12:00Z</time></trkpt>
<trkpt lat="53.377626" lon="-1.810792"><ele>283.1</ele><time>2026-10-08T09:12:15Z</time></trkpt>
<trkpt lat="53.377666" lon="-1.810656"><ele>284.0</ele><time>2026-10-08T09:12:30Z</time></trkpt>
<trkpt lat="53.377708" lon="-1.810519"><ele>284.9</ele><time>2026-10-08T09:12:45Z</time></trkpt>
<trkpt lat="53.377753" lon="-1.810382"><ele>285.9</ele><time>2026-10-08T09:13:00Z</time></trkpt>
<trkpt lat="53.377800" lon="-1.810245"><ele>286.8</ele><time>2026-10-08T09:13:15Z</time></trkpt>
<trkpt lat="53.377851" lon="-1.810107"><ele>287.8</ele><time>2026-10-08T09:13:30Z</time></trkpt>
<trkpt lat="53.377906" lon="-1.809968"><ele>288.8</ele><time>2026-10-08T09:13:45Z</time></trkpt>
<trkpt lat="53.377964" lon="-1.809828"><ele>289.8</ele><time>2026-10-08T09:14:00Z</time></trkpt>
<trkpt lat="53.378026" lon="-1.809688"><ele>290.8</ele><time>2026-10-08T09:14:15Z</time></trkpt>
<trkpt lat="53.378093" lon="-1.809546"><ele>291.8</ele><time>2026-10-08T09:14:30Z</time></trkpt>
<trkpt lat="53.378164" lon="-1.809404"><ele>292.8</ele><time>2026-10-08T09:14:45Z</time></trkpt>
<trkpt lat="53.378239" lon="-1.809260"><ele>293.9</ele><time>2026-10-08T09:15:00Z</time></trkpt>
<trkpt lat="53.378320" lon="-1.809116"><ele>294.9</ele><time>2026-10-08T09:15:15Z</time></trkpt>
<trkpt lat="53.378405" lon="-1.808970"><ele>296.0</ele><time>2026-10-08T09:15:30Z</time></trkpt>
<trkpt lat="53.378495" lon="-1.808823"><ele>297.1</ele><time>2026-10-08T09:15:45Z</time></trkpt>
<trkpt lat="53.378589" lon="-1.808674"><ele>298.2</ele><time>2026-10-08T09:16:00Z</time></trkpt>
<trkpt lat="53.378689" lon="-1.808524"><ele>299.3</ele><time>2026-10-08T09:16:15Z</time></trkpt>
<trkpt lat="53.378793" lon="-1.808373"><ele>300.4</ele><time>2026-10-08T09:16:30Z</time></trkpt>
<trkpt lat="53.378902" lon="-1.808220"><ele>301.5</ele><time>2026-10-08T09:16:45Z</time></trkpt>
<trkpt lat="53.379015" lon="-1.808065"><ele>302.7</ele><time>2026-10-08T09:17:00Z</time></trkpt>
<trkpt lat="53.379133" lon="-1.807908"><ele>303.8</ele><time>2026-10-08T09:17:15Z</time></trkpt>
<trkpt lat="53.379254" lon="-1.807750"><ele>305.0</ele><time>2026-10-08T09:17:30Z</time></trkpt>
<trkpt lat="53.379379" lon="-1.807590"><ele>306.2</ele><time>2026-10-08T09:17:45Z</time></trkpt>
<trkpt lat="53.379508" lon="-1.807427"><ele>307.4</ele><time>2026-10-08T09:18:00Z</time></trkpt>
<trkpt lat="53.379640" lon="-1.807263"><ele>308.5</ele><time>2026-10-08T09:18:15Z</time></trkpt>
<trkpt lat="53.379775" lon="-1.807096"><ele>309.7</ele><time>2026-10-08T09:18:30Z</time></trkpt>
<trkpt lat="53.379912" lon="-1.806927"><ele>311.0</ele><time>2026-10-08T09:18:45Z</time></trkpt>
<trkpt lat="53.380051" lon="-1.806755"><ele>312.2</ele><time>2026-10-08T09:19:00Z</time></trkpt>
<trkpt lat="53.380192" lon="-1.806581"><ele>313.4</ele><time>2026-10-08T09:19:15Z</time></trkpt>
<trkpt lat="53.380334" lon="-1.806405"><ele>314.6</ele><time>2026-10-08T09:19:30Z</time></trkpt>
<trkpt lat="53.380477" lon="-1.806226"><ele>315.9</ele><time>2026-10-08T09:19:45Z</time></trkpt>
<trkpt lat="53.380620" lon="-1.806044"><ele>317.1</ele><time>2026-10-08T09:20:00Z</time></trkpt>
<trkpt lat="53.380763" lon="-1.805860"><ele>318.4</ele><time>2026-10-08T09:20:15Z</time></trkpt>
<trkpt lat="53.380906" lon="-1.805673"><ele>319.6</ele><time>2026-10-08T09:20:30Z</time></trkpt>
<trkpt lat="53.381047" lon="-1.805483"><ele>320.9</ele><time>2026-10-08T09:20:45Z</time></trkpt>
<trkpt lat="53.381186" lon="-1.805289"><ele>322.2</ele><time>2026-10-08T09:21:00Z</time></trkpt>
<trkpt lat="53.381323" lon="-1.805093"><ele>323.5</ele><time>2026-10-08T09:21:15Z</time></trkpt>
<trkpt lat="53.381458" lon="-1.804894"><ele>324.8</ele><time>2026-10-08T09:21:30Z</time></trkpt>
<trkpt lat="53.381589" lon="-1.804692"><ele>326.1</ele><time>2026-10-08T09:21:45Z</time></trkpt>
<trkpt lat="53.381716" lon="-1.804487"><ele>327.4</ele><time>2026-10-08T09:22:00Z</time></trkpt>
<trkpt lat="53.381839" lon="-1.804279"><ele>328.7</ele><time>2026-10-08T09:22:15Z</time></trkpt>
<trkpt lat="53.381957" lon="-1.804067"><ele>330.0</ele><time>2026-10-08T09:22:30Z</time></trkpt>
<trkpt lat="53.382071" lon="-1.803852"><ele>331.3</ele><time>2026-10-08T09:22:45Z</time></trkpt>
<trkpt lat="53.382178" lon="-1.803634"><ele>332.6</ele><time>2026-10-08T09:23:00Z</time></trkpt>
<trkpt lat="53.382279" lon="-1.803412"><ele>333.9</ele><time>2026-10-08T09:23:15Z</time></trkpt>
<trkpt lat="53.382374" lon="-1.803188"><ele>335.3</ele><time>2026-10-08T09:23:30Z</time></trkpt>
<trkpt lat="53.382462" lon="-1.802960"><ele>336.6</ele><time>2026-10-08T09:23:45Z</time></trkpt>
<trkpt lat="53.382543" lon="-1.802728"><ele>337.9</ele><time>2026-10-08T09:24:00Z</time></trkpt>
<trkpt lat="53.382616" lon="-1.802494"><ele>339.3</ele><time>2026-10-08T09:24:15Z</time></trkpt>
<trkpt lat="53.382682" lon="-1.802256"><ele>340.6</ele><time>2026-10-08T09:24:30Z</time></trkpt>
<trkpt lat="53.382739" lon="-1.802015"><ele>341.9</ele><time>2026-10-08T09:24:45Z</time></trkpt>
<trkpt lat="53.382788" lon="-1.801770"><ele>343.3</ele><time>2026-10-08T09:25:00Z</time></trkpt>
<trkpt lat="53.382828" lon="-1.801522"><ele>344.6</ele><time>2026-10-08T09:25:15Z</time></trkpt>
<trkpt lat="53.382859" lon="-1.801272"><ele>346.0</ele><time>2026-10-08T09:25:30Z</time></trkpt>
<trkpt lat="53.382882" lon="-1.801017"><ele>347.3</ele><time>2026-10-08T09:25:45Z</time></trkpt>
<trkpt lat="53.382895" lon="-1.800760"><ele>348.7</ele><time>2026-10-08T09:26:00Z</time></trkpt>
<trkpt lat="53.382900" lon="-1.800500"><ele>350.0</ele><time>2026-10-08T09:26:15Z</time></trkpt>
<trkpt lat="53.382895" lon="-1.800237"><ele>351.3</ele><time>2026-10-08T09:26:30Z</time></trkpt>
<trkpt lat="53.382882" lon="-1.799970"><ele>352.7</ele><time>2026-10-08T09:26:45Z</time></trkpt>
<trkpt lat="53.382859" lon="-1.799701"><ele>354.0</ele><time>2026-10-08T09:27:00Z</time></trkpt>
<trkpt lat="53.382828" lon="-1.799429"><ele>355.4</ele><time>2026-10-08T09:27:15Z</time></trkpt>
<trkpt lat="53.382788" lon="-1.799155"><ele>356.7</ele><time>2026-10-08T09:27:30Z</time></trkpt>
<trkpt lat="53.382739" lon="-1.798877"><ele>358.1</ele><time>2026-10-08T09:27:45Z</time></trkpt>
<trkpt lat="53.382682" lon="-1.798597"><ele>359.4</ele><time>2026-10-08T09:28:00Z</time></trkpt>
<trkpt lat="53.382616" lon="-1.798315"><ele>360.7</ele><time>2026-10-08T09:28:15Z</time></trkpt>
<trkpt lat="53.382543" lon="-1.798030"><ele>362.1</ele><time>2026-10-08T09:28:30Z</time></trkpt>
<trkpt lat="53.382462" lon="-1.797743"><ele>363.4</ele><time>2026-10-08T09:28:45Z</time></trkpt>
<trkpt lat="53.382374" lon="-1.797454"><ele>364.7</ele><time>2026-10-08T09:29:00Z</time></trkpt>
<trkpt lat="53.382279" lon="-1.797163"><ele>366.1</ele><time>2026-10-08T09:29:15Z</time></trkpt>
<trkpt lat="53.382178" lon="-1.796870"><ele>367.4</ele><time>2026-10-08T09:29:30Z</time></trkpt>
<trkpt lat="53.382071" lon="-1.796575"><ele>368.7</ele><time>2026-10-08T09:29:45Z</time></trkpt>
<trkpt lat="53.381957" lon="-1.796279"><ele>370.0</ele><time>2026-10-08T09:30:00Z</time></trkpt>
<trkpt lat="53.381839" lon="-1.795981"><ele>371.3</ele><time>2026-10-08T09:30:15Z</time></trkpt>
<trkpt lat="53.381716" lon="-1.795681"><ele>372.6</ele><time>2026-10-08T09:30:30Z</time></trkpt>
<trkpt lat="53.381589" lon="-1.795381"><ele>373.9</ele><time>2026-10-08T09:30:45Z</time></trkpt>
<trkpt lat="53.381458" lon="-1.795079"><ele>375.2</ele><time>2026-10-08T09:31:00Z</time></trkpt>
<trkpt lat="53.381323" lon="-1.794777"><ele>376.5</ele><time>2026-10-08T09:31:15Z</time></trkpt>
<trkpt lat="53.381186" lon="-1.794474"><ele>377.8</ele><time>2026-10-08T09:31:30Z</time></trkpt>
<trkpt lat="53.381047" lon="-1.794170"><ele>379.1</ele><time>2026-10-08T09:31:45Z</time></trkpt>
<trkpt lat="53.380906" lon="-1.793866"><ele>380.4</ele><time>2026-10-08T09:32:00Z</time></trkpt>
<trkpt lat="53.380763" lon="-1.793562"><ele>381.6</ele><time>2026-10-08T09:32:15Z</time></trkpt>
<trkpt lat="53.380620" lon="-1.793257"><ele>382.9</ele><time>2026-10-08T09:32:30Z</time></trkpt>
<trkpt lat="53.380477" lon="-1.792953"><ele>384.1</ele><time>2026-10-08T09:32:45Z</time></trkpt>
<trkpt lat="53.380334" lon="-1.792649"><ele>385.4</ele><time>2026-10-08T09:33:00Z</time></trkpt>
<trkpt lat="53.380192" lon="-1.792346"><ele>386.6</ele><time>2026-10-08T09:33:15Z</time></trkpt>
<trkpt lat="53.380051" lon="-1.792043"><ele>387.8</ele><time>2026-10-08T09:33:30Z</time></trkpt>
<trkpt lat="53.379912" lon="-1.791741"><ele>389.0</ele><time>2026-10-08T09:33:45Z</time></trkpt>
<trkpt lat="53.379775" lon="-1.791440"><ele>390.3</ele><time>2026-10-08T09:34:00Z</time></trkpt>
<trkpt lat="53.379640" lon="-1.791140"><ele>391.5</ele><time>2026-10-08T09:34:15Z</time></trkpt>
<trkpt lat="53.379508" lon="-1.790842"><ele>392.6</ele><time>2026-10-08T09:34:30Z</time></trkpt>
<trkpt lat="53.379379" lon="-1.790545"><ele>393.8</ele><time>2026-10-08T09:34:45Z</time></trkpt>
<trkpt lat="53.379254" lon="-1.790250"><ele>395.0</ele><time>2026-10-08T09:35:00Z</time></trkpt>
<trkpt lat="53.379133" lon="-1.789957"><ele>396.2</ele><time>2026-10-08T09:35:15Z</time></trkpt>
<trkpt lat="53.379015" lon="-1.789666"><ele>397.3</ele><time>2026-10-08T09:35:30Z</time></trkpt>
<trkpt lat="53.378902" lon="-1.789378"><ele>398.5</ele><time>2026-10-08T09:35:45Z</time></trkpt>
<trkpt lat="53.378793" lon="-1.789091"><ele>399.6</ele><time>2026-10-08T09:36:00Z</time></trkpt>
<trkpt lat="53.378689" lon="-1.788808"><ele>400.7</ele><time>2026-10-08T09:36:15Z</time></trkpt>
<trkpt lat="53.378589" lon="-1.788528"><ele>401.8</ele><time>2026-10-08T09:36:30Z</time></trkpt>
<trkpt lat="53.378495" lon="-1.788250"><ele>402.9</ele><time>2026-10-08T09:36:45Z</time></trkpt>
<trkpt lat="53.378405" lon="-1.787976"><ele>404.0</ele><time>2026-10-08T09:37:00Z</time></trkpt>
<trkpt lat="53.378320" lon="-1.787705"><ele>405.1</ele><time>2026-10-08T09:37:15Z</time></trkpt>
<trkpt lat="53.378239" lon="-1.787438"><ele>406.1</ele><time>2026-10-08T09:37:30Z</time></trkpt>
<trkpt lat="53.378164" lon="-1.787175"><ele>407.2</ele><time>2026-10-08T09:37:45Z</time></trkpt>
<trkpt lat="53.378093" lon="-1.786915"><ele>408.2</ele><time>2026-10-08T09:38:00Z</time></trkpt>
<trkpt lat="53.378026" lon="-1.786660"><ele>409.2</ele><time>2026-10-08T09:38:15Z</time></trkpt>
<trkpt lat="53.377964" lon="-1.786409"><ele>410.2</ele><time>2026-10-08T09:38:30Z</time></trkpt>
<trkpt lat="53.377906" lon="-1.786162"><ele>411.2</ele><time>2026-10-08T09:38:45Z</time></trkpt>
<trkpt lat="53.377851" lon="-1.785919"><ele>412.2</ele><time>2026-10-08T09:39:00Z</time></trkpt>
<trkpt lat="53.377800" lon="-1.785682"><ele>413.2</ele><time>2026-10-08T09:39:15Z</time></trkpt>
<trkpt lat="53.377753" lon="-1.785449"><ele>414.1</ele><time>2026-10-08T09:39:30Z</time></trkpt>
<trkpt lat="53.377708" lon="-1.785221"><ele>415.1</ele><time>2026-10-08T09:39:45Z</time></trkpt>
<trkpt lat="53.377666" lon="-1.784999"><ele>416.0</ele><time>2026-10-08T09:40:00Z</time></trkpt>
<trkpt lat="53.377626" lon="-1.784781"><ele>416.9</ele><time>2026-10-08T09:40:15Z</time></trkpt>
<trkpt lat="53.377588" lon="-1.784569"><ele>417.8</ele><time>2026-10-08T09:40:30Z</time></trkpt>
<trkpt lat="53.377551" lon="-1.784363"><ele>418.7</ele><time>2026-10-08T09:40:45Z</time></trkpt>
<trkpt lat="53.377515" lon="-1.784162"><ele>419.5</ele><time>2026-10-08T09:41:00Z</time></trkpt>
<trkpt lat="53.377480" lon="-1.783966"><ele>420.4</ele><time>2026-10-08T09:41:15Z</time></trkpt>
<trkpt lat="53.377444" lon="-1.783777"><ele>421.2</ele><time>2026-10-08T09:41:30Z</time></trkpt>
<trkpt lat="53.377408" lon="-1.783593"><ele>422.0</ele><time>2026-10-08T09:41:45Z</time></trkpt>
<trkpt lat="53.377372" lon="-1.783416"><ele>422.8</ele><time>2026-10-08T09:42:00Z</time></trkpt>
<trkpt lat="53.377334" lon="-1.783244"><ele>423.6</ele><time>2026-10-08T09:42:15Z</time></trkpt>
<trkpt lat="53.377294" lon="-1.783078"><ele>424.4</ele><time>2026-10-08T09:42:30Z</time></trkpt>
<trkpt lat="53.377251" lon="-1.782919"><ele>425.1</ele><time>2026-10-08T09:42:45Z</time></trkpt>
<trkpt lat="53.377206" lon="-1.782766"><ele>425.8</ele><time>2026-10-08T09:43:00Z</time></trkpt>
<trkpt lat="53.377158" lon="-1.782619"><ele>426.6</ele><time>2026-10-08T09:43:15Z</time></trkpt>
<trkpt lat="53.377106" lon="-1.782479"><ele>427.3</ele><time>2026-10-08T09:43:30Z</time></trkpt>
<trkpt lat="53.377050" lon="-1.782345"><ele>427.9</ele><time>2026-10-08T09:43:45Z</time></trkpt>
<trkpt lat="53.376989" lon="-1.782217"><ele>428.6</ele><time>2026-10-08T09:44:00Z</time></trkpt>
<trkpt lat="53.376924" lon="-1.782096"><ele>429.3</ele><time>2026-10-08T09:44:15Z</time></trkpt>
<trkpt lat="53.376853" lon="-1.781981"><ele>429.9</ele><time>2026-10-08T09:44:30Z</time></trkpt>
<trkpt lat="53.376776" lon="-1.781873"><ele>430.5</ele><time>2026-10-08T09:44:45Z</time></trkpt>
<trkpt lat="53.376694" lon="-1.781771"><ele>431.1</ele><time>2026-10-08T09:45:00Z</time></trkpt>
<trkpt lat="53.376605" lon="-1.781675"><ele>431.7</ele><time>2026-10-08T09:45:15Z</time></trkpt>
<trkpt lat="53.376510" lon="-1.781586"><ele>432.2</ele><time>2026-10-08T09:45:30Z</time></trkpt>
<trkpt lat="53.376408" lon="-1.781504"><ele>432.8</ele><time>2026-10-08T09:45:45Z</time></trkpt>
<trkpt lat="53.376299" lon="-1.781428"><ele>433.3</ele><time>2026-10-08T09:46:00Z</time></trkpt>
<trkpt lat="53.376183" lon="-1.781358"><ele>433.8</ele><time>2026-10-08T09:46:15Z</time></trkpt>
<trkpt lat="53.376059" lon="-1.781295"><ele>434.3</ele><time>2026-10-08T09:46:30Z</time></trkpt>
<trkpt lat="53.375929" lon="-1.781238"><ele>434.7</ele><time>2026-10-08T09:46:45Z</time></trkpt>
<trkpt lat="53.375790" lon="-1.781187"><ele>435.2</ele><time>2026-10-08T09:47:00Z</time></trkpt>
<trkpt lat="53.375645" lon="-1.781143"><ele>435.6</ele><time>2026-10-08T09:47:15Z</time></trkpt>
<trkpt lat="53.375492" lon="-1.781105"><ele>436.0</ele><time>2026-10-08T09:47:30Z</time></trkpt>
<trkpt lat="53.375331" lon="-1.781073"><ele>436.4</ele><time>2026-10-08T09:47:45Z</time></trkpt>
<trkpt lat="53.375163" lon="-1.781046"><ele>436.8</ele><time>2026-10-08T09:48:00Z</time></trkpt>
<trkpt lat="53.374988" lon="-1.781026"><ele>437.1</ele><time>2026-10-08T09:48:15Z</time></trkpt>
<trkpt lat="53.374806" lon="-1.781012"><ele>437.4</ele><time>2026-10-08T09:48:30Z</time></trkpt>
<trkpt lat="53.374618" lon="-1.781004"><ele>437.7</ele><time>2026-10-08T09:48:45Z</time></trkpt>
<trkpt lat="53.374422" lon="-1.781001"><ele>438.0</ele><time>2026-10-08T09:49:00Z</time></trkpt>
<trkpt lat="53.374221" lon="-1.781004"><ele>438.3</ele><time>2026-10-08T09:49:15Z</time></trkpt>
<trkpt lat="53.374013" lon="-1.781012"><ele>438.6</ele><time>2026-10-08T09:49:30Z</time></trkpt>
<trkpt lat="53.373800" lon="-1.781026"><ele>438.8</ele><time>2026-10-08T09:49:45Z</time></trkpt>
<trkpt lat="53.373581" lon="-1.781045"><ele>439.0</ele><time>2026-10-08T09:50:00Z</time></trkpt>
<trkpt lat="53.373358" lon="-1.781069"><ele>439.2</ele><time>2026-10-08T09:50:15Z</time></trkpt>
<trkpt lat="53.373130" lon="-1.781098"><ele>439.4</ele><time>2026-10-08T09:50:30Z</time></trkpt>
<trkpt lat="53.372898" lon="-1.781132"><ele>439.5</ele><time>2026-10-08T09:50:45Z</time></trkpt>
<trkpt lat="53.372662" lon="-1.781171"><ele>439.6</ele><time>2026-10-08T09:51:00Z</time></trkpt>
<trkpt lat="53.372423" lon="-1.781215"><ele>439.7</ele><time>2026-10-08T09:51:15Z</time></trkpt>
<trkpt lat="53.372182" lon="-1.781263"><ele>439.8</ele><time>2026-10-08T09:51:30Z</time></trkpt>
<trkpt lat="53.371938" lon="-1.781316"><ele>439.9</ele><time>2026-10-08T09:51:45Z</time></trkpt>
<trkpt lat="53.371693" lon="-1.781373"><ele>440.0</ele><time>2026-10-08T09:52:00Z</time></trkpt>
<trkpt lat="53.371447" lon="-1.781435"><ele>440.0</ele><time>2026-10-08T09:52:15Z</time></trkpt>
<trkpt lat="53.371200" lon="-1.781500"><ele>440.0</ele><time>2026-10-08T09:52:30Z</time></trkpt>
<trkpt lat="53.370953" lon="-1.781569"><ele>440.0</ele><time>2026-10-08T09:52:45Z</time></trkpt>
<trkpt lat="53.370707" lon="-1.781642"><ele>440.0</ele><time>2026-10-08T09:53:00Z</time></trkpt>
<trkpt lat="53.370462" lon="-1.781719"><ele>439.9</ele><time>2026-10-08T09:53:15Z</time></trkpt>
<trkpt lat="53.370218" lon="-1.781799"><ele>439.8</ele><time>2026-10-08T09:53:30Z</time></trkpt>
<trkpt lat="53.369977" lon="-1.781883"><ele>439.7</ele><time>2026-10-08T09:53:45Z</time></trkpt>
<trkpt lat="53.369738" lon="-1.781970"><ele>439.6</ele><time>2026-10-08T09:54:00Z</time></trkpt>
<trkpt lat="53.369502" lon="-1.782059"><ele>439.5</ele><time>2026-10-08T09:54:15Z</time></trkpt>
<trkpt lat="53.369270" lon="-1.782152"><ele>439.4</ele><time>2026-10-08T09:54:30Z</time></trkpt>
<trkpt lat="53.369042" lon="-1.782248"><ele>439.2</ele><time>2026-10-08T09:54:45Z</time></trkpt>
<trkpt lat="53.368819" lon="-1.782346"><ele>439.0</ele><time>2026-10-08T09:55:00Z</time></trkpt>
<trkpt lat="53.368600" lon="-1.782447"><ele>438.8</ele><time>2026-10-08T09:55:15Z</time></trkpt>
<trkpt lat="53.368387" lon="-1.782551"><ele>438.6</ele><time>2026-10-08T09:55:30Z</time></trkpt>
<trkpt lat="53.368179" lon="-1.782656"><ele>438.3</ele><time>2026-10-08T09:55:45Z</time></trkpt>
<trkpt lat="53.367978" lon="-1.782764"><ele>438.0</ele><time>2026-10-08T09:56:00Z</time></trkpt>
<trkpt lat="53.367782" lon="-1.782874"><ele>437.7</ele><time>2026-10-08T09:56:15Z</time></trkpt>
<trkpt lat="53.367594" lon="-1.782986"><ele>437.4</ele><time>2026-10-08T09:56:30Z</time></trkpt>
<trkpt lat="53.367412" lon="-1.783099"><ele>437.1</ele><time>2026-10-08T09:56:45Z</time></trkpt>
<trkpt lat="53.367237" lon="-1.783215"><ele>436.8</ele><time>2026-10-08T09:57:00Z</time></trkpt>
<trkpt lat="53.367069" lon="-1.783332"><ele>436.4</ele><time>2026-10-08T09:57:15Z</time></trkpt>
<trkpt lat="53.366908" lon="-1.783450"><ele>436.0</ele><time>2026-10-08T09:57:30Z</time></trkpt>
<trkpt lat="53.366755" lon="-1.783570"><ele>435.6</ele><time>2026-10-08T09:57:45Z</time></trkpt>
<trkpt lat="53.366610" lon="-1.783691"><ele>435.2</ele><time>2026-10-08T09:58:00Z</time></trkpt>
<trkpt lat="53.366471" lon="-1.783813"><ele>434.7</ele><time>2026-10-08T09:58:15Z</time></trkpt>
<trkpt lat="53.366341" lon="-1.783937"><ele>434.3</ele><time>2026-10-08T09:58:30Z</time></trkpt>
<trkpt lat="53.366217" lon="-1.784061"><ele>433.8</ele><time>2026-10-08T09:58:45Z</time></trkpt>
<trkpt lat="53.366101" lon="-1.784186"><ele>433.3</ele><time>2026-10-08T09:59:00Z</time></trkpt>
<trkpt lat="53.365992" lon="-1.784313"><ele>432.8</ele><time>2026-10-08T09:59:15Z</time></trkpt>
<trkpt lat="53.365890" lon="-1.784440"><ele>432.2</ele><time>2026-10-08T09:59:30Z</time></trkpt>
<trkpt lat="53.365795" lon="-1.784567"><ele>431.7</ele><time>2026-10-08T09:59:45Z</time></trkpt>
<trkpt lat="53.365706" lon="-1.784695"><ele>431.1</ele><time>2026-10-08T10:00:00Z</time></trkpt>
<trkpt lat="53.365624" lon="-1.784824"><ele>430.5</ele><time>2026-10-08T10:00:15Z</time></trkpt>
<trkpt lat="53.365547" lon="-1.784954"><ele>429.9</ele><time>2026-10-08T10:00:30Z</time></trkpt>
<trkpt lat="53.365476" lon="-1.785084"><ele>429.3</ele><time>2026-10-08T10:00:45Z</time></trkpt>
<trkpt lat="53.365411" lon="-1.785214"><ele>428.6</ele><time>2026-10-08T10:01:00Z</time></trkpt>
<trkpt lat="53.365350" lon="-1.785345"><ele>427.9</ele><time>2026-10-08T10:01:15Z</time></trkpt>
<trkpt lat="53.365294" lon="-1.785476"><ele>427.3</ele><time>2026-10-08T10:01:30Z</time></trkpt>
<trkpt lat="53.365242" lon="-1.785607"><ele>426.6</ele><time>2026-10-08T10:01:45Z</time></trkpt>
<trkpt lat="53.365194" lon="-1.785739"><ele>425.8</ele><time>2026-10-08T10:02:00Z</time></trkpt>
<trkpt lat="53.365149" lon="-1.785871"><ele>425.1</ele><time>2026-10-08T10:02:15Z</time></trkpt>
<trkpt lat="53.365106" lon="-1.786003"><ele>424.4</ele><time>2026-10-08T10:02:30Z</time></trkpt>
<trkpt lat="53.365066" lon="-1.786136"><ele>423.6</ele><time>2026-10-08T10:02:45Z</time></trkpt>
<trkpt lat="53.365028" lon="-1.786269"><ele>422.8</ele><time>2026-10-08T10:03:00Z</time></trkpt>
<trkpt lat="53.364992" lon="-1.786402"><ele>422.0</ele><time>2026-10-08T10:03:15Z</time></trkpt>
<trkpt lat="53.364956" lon="-1.786536"><ele>421.2</ele><time>2026-10-08T10:03:30Z</time></trkpt>
<trkpt lat="53.364920" lon="-1.786669"><ele>420.4</ele><time>2026-10-08T10:03:45Z</time></trkpt>
<trkpt lat="53.364885" lon="-1.786804"><ele>419.5</ele><time>2026-10-08T10:04:00Z</time></trkpt>
<trkpt lat="53.364849" lon="-1.786938"><ele>418.7</ele><time>2026-10-08T10:04:15Z</time></trkpt>
<trkpt lat="53.364812" lon="-1.787073"><ele>417.8</ele><time>2026-10-08T10:04:30Z</time></trkpt>
<trkpt lat="53.364774" lon="-1.787208"><ele>416.9</ele><time>2026-10-08T10:04:45Z</time></trkpt>
<trkpt lat="53.364734" lon="-1.787344"><ele>416.0</ele><time>2026-10-08T10:05:00Z</time></trkpt>
<trkpt lat="53.364692" lon="-1.787481"><ele>415.1</ele><time>2026-10-08T10:05:15Z</time></trkpt>
<trkpt lat="53.364647" lon="-1.787618"><ele>414.1</ele><time>2026-10-08T10:05:30Z</time></trkpt>
<trkpt lat="53.364600" lon="-1.787755"><ele>413.2</ele><time>2026-10-08T10:05:45Z</time></trkpt>
<trkpt lat="53.364549" lon="-1.787893"><ele>412.2</ele><time>2026-10-08T10:06:00Z</time></trkpt>
<trkpt lat="53.364494" lon="-1.788032"><ele>411.2</ele><time>2026-10-08T10:06:15Z</time></trkpt>
<trkpt lat="53.364436" lon="-1.788172"><ele>410.2</ele><time>2026-10-08T10:06:30Z</time></trkpt>
<trkpt lat="53.364374" lon="-1.788312"><ele>409.2</ele><time>2026-10-08T10:06:45Z</time></trkpt>
<trkpt lat="53.364307" lon="-1.788454"><ele>408.2</ele><time>2026-10-08T10:07:00Z</time></trkpt>
<trkpt lat="53.364236" lon="-1.788596"><ele>407.2</ele><time>2026-10-08T10:07:15Z</time></trkpt>
<trkpt lat="53.364161" lon="-1.788740"><ele>406.1</ele><time>2026-10-08T10:07:30Z</time></trkpt>
<trkpt lat="53.364080" lon="-1.788884"><ele>405.1</ele><time>2026-10-08T10:07:45Z</time></trkpt>
<trkpt lat="53.363995" lon="-1.789030"><ele>404.0</ele><time>2026-10-08T10:08:00Z</time></trkpt>
<trkpt lat="53.363905" lon="-1.789177"><ele>402.9</ele><time>2026-10-08T10:08:15Z</time></trkpt>
<trkpt lat="53.363811" lon="-1.789326"><ele>401.8</ele><time>2026-10-08T10:08:30Z</time></trkpt>
<trkpt lat="53.363711" lon="-1.789476"><ele>400.7</ele><time>2026-10-08T10:08:45Z</time></trkpt>
<trkpt lat="53.363607" lon="-1.789627"><ele>399.6</ele><time>2026-10-08T10:09:00Z</time></trkpt>
<trkpt lat="53.363498" lon="-1.789780"><ele>398.5</ele><time>2026-10-08T10:09:15Z</time></trkpt>
<trkpt lat="53.363385" lon="-1.789935"><ele>397.3</ele><time>2026-10-08T10:09:30Z</time></trkpt>
<trkpt lat="53.363267" lon="-1.790092"><ele>396.2</ele><time>2026-10-08T10:09:45Z</time></trkpt>
<trkpt lat="53.363146" lon="-1.790250"><ele>395.0</ele><time>2026-10-08T10:10:00Z</time></trkpt>
<trkpt lat="53.363021" lon="-1.790410"><ele>393.8</ele><time>2026-10-08T10:10:15Z</time></trkpt>
<trkpt lat="53.362892" lon="-1.790573"><ele>392.6</ele><time>2026-10-08T10:10:30Z</time></trkpt>
<trkpt lat="53.362760" lon="-1.790737"><ele>391.5</ele><time>2026-10-08T10:10:45Z</time></trkpt>
<trkpt lat="53.362625" lon="-1.790904"><ele>390.3</ele><time>2026-10-08T10:11:00Z</time></trkpt>
<trkpt lat="53.362488" lon="-1.791073"><ele>389.0</ele><time>2026-10-08T10:11:15Z</time></trkpt>
<trkpt lat="53.362349" lon="-1.791245"><ele>387.8</ele><time>2026-10-08T10:11:30Z</time></trkpt>
<trkpt lat="53.362208" lon="-1.791419"><ele>386.6</ele><time>2026-10-08T10:11:45Z</time></trkpt>
<trkpt lat="53.362066" lon="-1.791595"><ele>385.4</ele><time>2026-10-08T10:12:00Z</time></trkpt>
<trkpt lat="53.361923" lon="-1.791774"><ele>384.1</ele><time>2026-10-08T10:12:15Z</time></trkpt>
<trkpt lat="53.361780" lon="-1.791956"><ele>382.9</ele><time>2026-10-08T10:12:30Z</time></trkpt>
<trkpt lat="53.361637" lon="-1.792140"><ele>381.6</ele><time>2026-10-08T10:12:45Z</time></trkpt>
<trkpt lat="53.361494" lon="-1.792327"><ele>380.4</ele><time>2026-10-08T10:13:00Z</time></trkpt>
<trkpt lat="53.361353" lon="-1.792517"><ele>379.1</ele><time>2026-10-08T10:13:15Z</time></trkpt>
<trkpt lat="53.361214" lon="-1.792711"><ele>377.8</ele><time>2026-10-08T10:13:30Z</time></trkpt>
<trkpt lat="53.361077" lon="-1.792907"><ele>376.5</ele><time>2026-10-08T10:13:45Z</time></trkpt>
<trkpt lat="53.360942" lon="-1.793106"><ele>375.2</ele><time>2026-10-08T10:14:00Z</time></trkpt>
<trkpt lat="53.360811" lon="-1.793308"><ele>373.9</ele><time>2026-10-08T10:14:15Z</time></trkpt>
<trkpt lat="53.360684" lon="-1.793513"><ele>372.6</ele><time>2026-10-08T10:14:30Z</time></trkpt>
<trkpt lat="53.360561" lon="-1.793721"><ele>371.3</ele><time>2026-10-08T10:14:45Z</time></trkpt>
<trkpt lat="53.360443" lon="-1.793933"><ele>370.0</ele><time>2026-10-08T10:15:00Z</time></trkpt>
<trkpt lat="53.360329" lon="-1.794148"><ele>368.7</ele><time>2026-10-08T10:15:15Z</time></trkpt>
<trkpt lat="53.360222" lon="-1.794366"><ele>367.4</ele><time>2026-10-08T10:15:30Z</time></trkpt>
<trkpt lat="53.360121" lon="-1.794588"><ele>366.1</ele><time>2026-10-08T10:15:45Z</time></trkpt>
<trkpt lat="53.360026" lon="-1.794812"><ele>364.7</ele><time>2026-10-08T10:16:00Z</time></trkpt>
<trkpt lat="53.359938" lon="-1.795040"><ele>363.4</ele><time>2026-10-08T10:16:15Z</time></trkpt>
<trkpt lat="53.359857" lon="-1.795272"><ele>362.1</ele><time>2026-10-08T10:16:30Z</time></trkpt>
<trkpt lat="53.359784" lon="-1.795506"><ele>360.7</ele><time>2026-10-08T10:16:45Z</time></trkpt>
<trkpt lat="53.359718" lon="-1.795744"><ele>359.4</ele><time>2026-10-08T10:17:00Z</time></trkpt>
<trkpt lat="53.359661" lon="-1.795985"><ele>358.1</ele><time>2026-10-08T10:17:15Z</time></trkpt>
<trkpt lat="53.359612" lon="-1.796230"><ele>356.7</ele><time>2026-10-08T10:17:30Z</time></trkpt>
<trkpt lat="53.359572" lon="-1.796478"><ele>355.4</ele><time>2026-10-08T10:17:45Z</time></trkpt>
<trkpt lat="53.359541" lon="-1.796728"><ele>354.0</ele><time>2026-10-08T10:18:00Z</time></trkpt>
<trkpt lat="53.359518" lon="-1.796983"><ele>352.7</ele><time>2026-10-08T10:18:15Z</time></trkpt>
<trkpt lat="53.359505" lon="-1.797240"><ele>351.3</ele><time>2026-10-08T10:18:30Z</time></trkpt>
<trkpt lat="53.359500" lon="-1.797500"><ele>350.0</ele><time>2026-10-08T10:18:45Z</time></trkpt>
<trkpt lat="53.359505" lon="-1.797763"><ele>348.7</ele><time>2026-10-08T10:19:00Z</time></trkpt>
<trkpt lat="53.359518" lon="-1.798030"><ele>347.3</ele><time>2026-10-08T10:19:15Z</time></trkpt>
<trkpt lat="53.359541" lon="-1.798299"><ele>346.0</ele><time>2026-10-08T10:19:30Z</time></trkpt>
<trkpt lat="53.359572" lon="-1.798571"><ele>344.6</ele><time>2026-10-08T10:19:45Z</time></trkpt>
<trkpt lat="53.359612" lon="-1.798845"><ele>343.3</ele><time>2026-10-08T10:20:00Z</time></trkpt>
<trkpt lat="53.359661" lon="-1.799123"><ele>341.9</ele><time>2026-10-08T10:20:15Z</time></trkpt>
<trkpt lat="53.359718" lon="-1.799403"><ele>340.6</ele><time>2026-10-08T10:20:30Z</time></trkpt>
<trkpt lat="53.359784" lon="-1.799685"><ele>339.3</ele><time>2026-10-08T10:20:45Z</time></trkpt>
<trkpt lat="53.359857" lon="-1.799970"><ele>337.9</ele><time>2026-10-08T10:21:00Z</time></trkpt>
<trkpt lat="53.359938" lon="-1.800257"><ele>336.6</ele><time>2026-10-08T10:21:15Z</time></trkpt>
<trkpt lat="53.360026" lon="-1.800546"><ele>335.3</ele><time>2026-10-08T10:21:30Z</time></trkpt>
<trkpt lat="53.360121" lon="-1.800837"><ele>333.9</ele><time>2026-10-08T10:21:45Z</time></trkpt>
<trkpt lat="53.360222" lon="-1.801130"><ele>332.6</ele><time>2026-10-08T10:22:00Z</time></trkpt>
<trkpt lat="53.360329" lon="-1.801425"><ele>331.3</ele><time>2026-10-08T10:22:15Z</time></trkpt>
<trkpt lat="53.360443" lon="-1.801721"><ele>330.0</ele><time>2026-10-08T10:22:30Z</time></trkpt>
<trkpt lat="53.360561" lon="-1.802019"><ele>328.7</ele><time>2026-10-08T10:22:45Z</time></trkpt>
<trkpt lat="53.360684" lon="-1.802319"><ele>327.4</ele><time>2026-10-08T10:23:00Z</time></trkpt>
<trkpt lat="53.360811" lon="-1.802619"><ele>326.1</ele><time>2026-10-08T10:23:15Z</time></trkpt>
<trkpt lat="53.360942" lon="-1.802921"><ele>324.8</ele><time>2026-10-08T10:23:30Z</time></trkpt>
<trkpt lat="53.361077" lon="-1.803223"><ele>323.5</ele><time>2026-10-08T10:23:45Z</time></trkpt>
<trkpt lat="53.361214" lon="-1.803526"><ele>322.2</ele><time>2026-10-08T10:24:00Z</time></trkpt>
<trkpt lat="53.361353" lon="-1.803830"><ele>320.9</ele><time>2026-10-08T10:24:15Z</time></trkpt>
<trkpt lat="53.361494" lon="-1.804134"><ele>319.6</ele><time>2026-10-08T10:24:30Z</time></trkpt>
<trkpt lat="53.361637" lon="-1.804438"><ele>318.4</ele><time>2026-10-08T10:24:45Z</time></trkpt>
<trkpt lat="53.361780" lon="-1.804743"><ele>317.1</ele><time>2026-10-08T10:25:00Z</time></trkpt>
<trkpt lat="53.361923" lon="-1.805047"><ele>315.9</ele><time>2026-10-08T10:25:15Z</time></trkpt>
<trkpt lat="53.362066" lon="-1.805351"><ele>314.6</ele><time>2026-10-08T10:25:30Z</time></trkpt>
<trkpt lat="53.362208" lon="-1.805654"><ele>313.4</ele><time>2026-10-08T10:25:45Z</time></trkpt>
<trkpt lat="53.362349" lon="-1.805957"><ele>312.2</ele><time>2026-10-08T10:26:00Z</time></trkpt>
<trkpt lat="53.362488" lon="-1.806259"><ele>311.0</ele><time>2026-10-08T10:26:15Z</time></trkpt>
<trkpt lat="53.362625" lon="-1.806560"><ele>309.7</ele><time>2026-10-08T10:26:30Z</time></trkpt>
<trkpt lat="53.362760" lon="-1.806860"><ele>308.5</ele><time>2026-10-08T10:26:45Z</time></trkpt>
<trkpt lat="53.362892" lon="-1.807158"><ele>307.4</ele><time>2026-10-08T10:27:00Z</time></trkpt>
<trkpt lat="53.363021" lon="-1.807455"><ele>306.2</ele><time>2026-10-08T10:27:15Z</time></trkpt>
<trkpt lat="53.363146" lon="-1.807750"><ele>305.0</ele><time>2026-10-08T10:27:30Z</time></trkpt>
<trkpt lat="53.363267" lon="-1.808043"><ele>303.8</ele><time>2026-10-08T10:27:45Z</time></trkpt>
<trkpt lat="53.363385" lon="-1.808334"><ele>302.7</ele><time>2026-10-08T10:28:00Z</time></trkpt>
<trkpt lat="53.363498" lon="-1.808622"><ele>301.5</ele><time>2026-10-08T10:28:15Z</time></trkpt>
<trkpt lat="53.363607" lon="-1.808909"><ele>300.4</ele><time>2026-10-08T10:28:30Z</time></trkpt>
<trkpt lat="53.363711" lon="-1.809192"><ele>299.3</ele><time>2026-10-08T10:28:45Z</time></trkpt>
<trkpt lat="53.363811" lon="-1.809472"><ele>298.2</ele><time>2026-10-08T10:29:00Z</time></trkpt>
<trkpt lat="53.363905" lon="-1.809750"><ele>297.1</ele><time>2026-10-08T10:29:15Z</time></trkpt>
<trkpt lat="53.363995" lon="-1.810024"><ele>296.0</ele><time>2026-10-08T10:29:30Z</time></trkpt>
<trkpt lat="53.364080" lon="-1.810295"><ele>294.9</ele><time>2026-10-08T10:29:45Z</time></trkpt>
<trkpt lat="53.364161" lon="-1.810562"><ele>293.9</ele><time>2026-10-08T10:30:00Z</time></trkpt>
<trkpt lat="53.364236" lon="-1.810825"><ele>292.8</ele><time>2026-10-08T10:30:15Z</time></trkpt>
<trkpt lat="53.364307" lon="-1.811085"><ele>291.8</ele><time>2026-10-08T10:30:30Z</time></trkpt>
<trkpt lat="53.364374" lon="-1.811340"><ele>290.8</ele><time>2026-10-08T10:30:45Z</time></trkpt>
<trkpt lat="53.364436" lon="-1.811591"><ele>289.8</ele><time>2026-10-08T10:31:00Z</time></trkpt>
<trkpt lat="53.364494" lon="-1.811838"><ele>288.8</ele><time>2026-10-08T10:31:15Z</time></trkpt>
<trkpt lat="53.364549" lon="-1.812081"><ele>287.8</ele><time>2026-10-08T10:31:30Z</time></trkpt>
<trkpt lat="53.364600" lon="-1.812318"><ele>286.8</ele><time>2026-10-08T10:31:45Z</time></trkpt>
<trkpt lat="53.364647" lon="-1.812551"><ele>285.9</ele><time>2026-10-08T10:32:00Z</time></trkpt>
<trkpt lat="53.364692" lon="-1.812779"><ele>284.9</ele><time>2026-10-08T10:32:15Z</time></trkpt>
<trkpt lat="53.364734" lon="-1.813001"><ele>284.0</ele><time>2026-10-08T10:32:30Z</time></trkpt>
<trkpt lat="53.364774" lon="-1.813219"><ele>283.1</ele><time>2026-10-08T10:32:45Z</time></trkpt>
<trkpt lat="53.364812" lon="-1.813431"><ele>282.2</ele><time>2026-10-08T10:33:00Z</time></trkpt>
<trkpt lat="53.364849" lon="-1.813637"><ele>281.3</ele><time>2026-10-08T10:33:15Z</time></trkpt>
<trkpt lat="53.364885" lon="-1.813838"><ele>280.5</ele><time>2026-10-08T10:33:30Z</time></trkpt>
<trkpt lat="53.364920" lon="-1.814034"><ele>279.6</ele><time>2026-10-08T10:33:45Z</time></trkpt>
<trkpt lat="53.364956" lon="-1.814223"><ele>278.8</ele><time>2026-10-08T10:34:00Z</time></trkpt>
<trkpt lat="53.364992" lon="-1.814407"><ele>278.0</ele><time>2026-10-08T10:34:15Z</time></trkpt>
<trkpt lat="53.365028" lon="-1.814584"><ele>277.2</ele><time>2026-10-08T10:34:30Z</time></trkpt>
<trkpt lat="53.365066" lon="-1.814756"><ele>276.4</ele><time>2026-10-08T10:34:45Z</time></trkpt>
<trkpt lat="53.365106" lon="-1.814922"><ele>275.6</ele><time>2026-10-08T10:35:00Z</time></trkpt>
<trkpt lat="53.365149" lon="-1.815081"><ele>274.9</ele><time>2026-10-08T10:35:15Z</time></trkpt>
<trkpt lat="53.365194" lon="-1.815234"><ele>274.2</ele><time>2026-10-08T10:35:30Z</time></trkpt>
<trkpt lat="53.365242" lon="-1.815381"><ele>273.4</ele><time>2026-10-08T10:35:45Z</time></trkpt>
<trkpt lat="53.365294" lon="-1.815521"><ele>272.7</ele><time>2026-10-08T10:36:00Z</time></trkpt>
<trkpt lat="53.365350" lon="-1.815655"><ele>272.1</ele><time>2026-10-08T10:36:15Z</time></trkpt>
<trkpt lat="53.365411" lon="-1.815783"><ele>271.4</ele><time>2026-10-08T10:36:30Z</time></trkpt>
<trkpt lat="53.365476" lon="-1.815904"><ele>270.7</ele><time>2026-10-08T10:36:45Z</time></trkpt>
<trkpt lat="53.365547" lon="-1.816019"><ele>270.1</ele><time>2026-10-08T10:37:00Z</time></trkpt>
<trkpt lat="53.365624" lon="-1.816127"><ele>269.5</ele><time>2026-10-08T10:37:15Z</time></trkpt>
<trkpt lat="53.365706" lon="-1.816229"><ele>268.9</ele><time>2026-10-08T10:37:30Z</time></trkpt>
<trkpt lat="53.365795" lon="-1.816325"><ele>268.3</ele><time>2026-10-08T10:37:45Z</time></trkpt>
<trkpt lat="53.365890" lon="-1.816414"><ele>267.8</ele><time>2026-10-08T10:38:00Z</time></trkpt>
<trkpt lat="53.365992" lon="-1.816496"><ele>267.2</ele><time>2026-10-08T10:38:15Z</time></trkpt>
<trkpt lat="53.366101" lon="-1.816572"><ele>266.7</ele><time>2026-10-08T10:38:30Z</time></trkpt>
<trkpt lat="53.366217" lon="-1.816642"><ele>266.2</ele><time>2026-10-08T10:38:45Z</time></trkpt>
<trkpt lat="53.366341" lon="-1.816705"><ele>265.7</ele><time>2026-10-08T10:39:00Z</time></trkpt>
<trkpt lat="53.366471" lon="-1.816762"><ele>265.3</ele><time>2026-10-08T10:39:15Z</time></trkpt>
<trkpt lat="53.366610" lon="-1.816813"><ele>264.8</ele><time>2026-10-08T10:39:30Z</time></trkpt>
<trkpt lat="53.366755" lon="-1.816857"><ele>264.4</ele><time>2026-10-08T10:39:45Z</time></trkpt>
<trkpt lat="53.366908" lon="-1.816895"><ele>264.0</ele><time>2026-10-08T10:40:00Z</time></trkpt>
<trkpt lat="53.367069" lon="-1.816927"><ele>263.6</ele><time>2026-10-08T10:40:15Z</time></trkpt>
<trkpt lat="53.367237" lon="-1.816954"><ele>263.2</ele><time>2026-10-08T10:40:30Z</time></trkpt>
<trkpt lat="53.367412" lon="-1.816974"><ele>262.9</ele><time>2026-10-08T10:40:45Z</time></trkpt>
<trkpt lat="53.367594" lon="-1.816988"><ele>262.6</ele><time>2026-10-08T10:41:00Z</time></trkpt>
<trkpt lat="53.367782" lon="-1.816996"><ele>262.3</ele><time>2026-10-08T10:41:15Z</time></trkpt>
<trkpt lat="53.367978" lon="-1.816999"><ele>262.0</ele><time>2026-10-08T10:41:30Z</time></trkpt>
<trkpt lat="53.368179" lon="-1.816996"><ele>261.7</ele><time>2026-10-08T10:41:45Z</time></trkpt>
<trkpt lat="53.368387" lon="-1.816988"><ele>261.4</ele><time>2026-10-08T10:42:00Z</time></trkpt>
<trkpt lat="53.368600" lon="-1.816974"><ele>261.2</ele><time>2026-10-08T10:42:15Z</time></trkpt>
<trkpt lat="53.368819" lon="-1.816955"><ele>261.0</ele><time>2026-10-08T10:42:30Z</time></trkpt>
<trkpt lat="53.369042" lon="-1.816931"><ele>260.8</ele><time>2026-10-08T10:42:45Z</time></trkpt>
<trkpt lat="53.369270" lon="-1.816902"><ele>260.6</ele><time>2026-10-08T10:43:00Z</time></trkpt>
<trkpt lat="53.369502" lon="-1.816868"><ele>260.5</ele><time>2026-10-08T10:43:15Z</time></trkpt>
<trkpt lat="53.369738" lon="-1.816829"><ele>260.4</ele><time>2026-10-08T10:43:30Z</time></trkpt>
<trkpt lat="53.369977" lon="-1.816785"><ele>260.3</ele><time>2026-10-08T10:43:45Z</time></trkpt>
<trkpt lat="53.370218" lon="-1.816737"><ele>260.2</ele><time>2026-10-08T10:44:00Z</time></trkpt>
<trkpt lat="53.370462" lon="-1.816684"><ele>260.1</ele><time>2026-10-08T10:44:15Z</time></trkpt>
<trkpt lat="53.370707" lon="-1.816627"><ele>260.0</ele><time>2026-10-08T10:44:30Z</time></trkpt>
<trkpt lat="53.370953" lon="-1.816565"><ele>260.0</ele><time>2026-10-08T10:44:45Z</time></trkpt>
<trkpt lat="53.371200" lon="-1.816500"><ele>260.0</ele><time>2026-10-08T10:45:00Z</time></trkpt>
</trkseg></trk></gpx>
