{
 "type": "FeatureCollection",
 "features": [
  {
   "type": "Feature",
   "properties": {
    "name": "track"
   },
   "geometry": {
    "type": "LineString",
    "coordinates": [
     [
      -1.8165,
      53.3712
     ],
     [
      -1.816431,
      53.371447
     ],
     [
      -1.816358,
      53.371693
     ],
     [
      -1.816281,
      53.371938
     ],
     [
      -1.816201,
      53.372182
     ],
     [
      -1.816117,
      53.372423
     ],
     [
      -1.81603,
      53.372662
     ],
     [
      -1.815941,
      53.372898
     ],
     [
      -1.815848,
      53.37313
     ],
     [
      -1.815752,
      53.373358
     ],
     [
      -1.815654,
      53.373581
     ],
     [
      -1.815553,
      53.3738
     ],
     [
      -1.815449,
      53.374013
     ],
     [
      -1.815344,
      53.374221
     ],
     [
      -1.815236,
      53.374422
     ],
     [
      -1.815126,
      53.374618
     ],
     [
      -1.815014,
      53.374806
     ],
     [
      -1.814901,
      53.374988
     ],
     [
      -1.814785,
      53.375163
     ],
     [
      -1.814668,
      53.375331
     ],
     [
      -1.81455,
      53.375492
     ],
     [
      -1.81443,
      53.375645
     ],
     [
      -1.814309,
      53.37579
     ],
     [
      -1.814187,
      53.375929
     ],
     [
      -1.814063,
      53.376059
     ],
     [
      -1.813939,
      53.376183
     ],
     [
      -1.813814,
      53.376299
     ],
     [
      -1.813687,
      53.376408
     ],
     [
      -1.81356,
      53.37651
     ],
     [
      -1.813433,
      53.376605
     ],
     [
      -1.813305,
      53.376694
     ],
     [
      -1.813176,
      53.376776
     ],
     [
      -1.813046,
      53.376853
     ],
     [
      -1.812916,
      53.376924
     ],
     [
      -1.812786,
      53.376989
     ],
     [
      -1.812655,
      53.37705
     ],
     [
      -1.812524,
      53.377106
     ],
     [
      -1.812393,
      53.377158
     ],
     [
      -1.812261,
      53.377206
     ],
     [
      -1.812129,
      53.377251
     ],
     [
      -1.811997,
      53.377294
     ],
     [
      -1.811864,
      53.377334
     ],
     [
      -1.811731,
      53.377372
     ],
     [
      -1.811598,
      53.377408
     ],
     [
      -1.811464,
      53.377444
     ],
     [
      -1.811331,
      53.37748
     ],
     [
      -1.811196,
      53.377515
     ],
     [
      -1.811062,
      53.377551
     ],
     [
      -1.810927,
      53.377588
     ],
     [
      -1.810792,
      53.377626
     ],
     [
      -1.810656,
      53.377666
     ],
     [
      -1.810519,
      53.377708
     ],
     [
      -1.810382,
      53.377753
     ],
     [
      -1.810245,
      53.3778
     ],
     [
      -1.810107,
      53.377851
     ],
     [
      -1.809968,
      53.377906
     ],
     [
      -1.809828,
      53.377964
     ],
     [
      -1.809688,
      53.378026
     ],
     [
      -1.809546,
      53.378093
     ],
     [
      -1.809404,
      53.378164
     ],
     [
      -1.80926,
      53.378239
     ],
     [
      -1.809116,
      53.37832
     ],
     [
      -1.80897,
      53.378405
     ],
     [
      -1.808823,
      53.378495
     ],
     [
      -1.808674,
      53.378589
     ],
     [
      -1.808524,
      53.378689
     ],
     [
      -1.808373,
      53.378793
     ],
     [
      -1.80822,
      53.378902
     ],
     [
      -1.808065,
      53.379015
     ],
     [
      -1.807908,
      53.379133
     ],
     [
      -1.80775,
      53.379254
     ],
     [
      -1.80759,
      53.379379
     ],
     [
      -1.807427,
      53.379508
     ],
     [
      -1.807263,
      53.37964
     ],
     [
      -1.807096,
      53.379775
     ],
     [
      -1.806927,
      53.379912
     ],
     [
      -1.806755,
      53.380051
     ],
     [
      -1.806581,
      53.380192
     ],
     [
      -1.806405,
      53.380334
     ],
     [
      -1.806226,
      53.380477
     ],
     [
      -1.806044,
      53.38062
     ],
     [
      -1.80586,
      53.380763
     ],
     [
      -1.805673,
      53.380906
     ],
     [
      -1.805483,
      53.381047
     ],
     [
      -1.805289,
      53.381186
     ],
     [
      -1.805093,
      53.381323
     ],
     [
      -1.804894,
      53.381458
     ],
     [
      -1.804692,
      53.381589
     ],
     [
      -1.804487,
      53.381716
     ],
     [
      -1.804279,
      53.381839
     ],
     [
      -1.804067,
      53.381957
     ],
     [
      -1.803852,
      53.382071
     ],
     [
      -1.803634,
      53.382178
     ],
     [
      -1.803412,
      53.382279
     ],
     [
      -1.803188,
      53.382374
     ],
     [
      -1.80296,
      53.382462
     ],
     [
      -1.802728,
      53.382543
     ],
     [
      -1.802494,
      53.382616
     ],
     [
      -1.802256,
      53.382682
     ],
     [
      -1.802015,
      53.382739
     ],
     [
      -1.80177,
      53.382788
     ],
     [
      -1.801522,
      53.382828
     ],
     [
      -1.801272,
      53.382859
     ],
     [
      -1.801017,
      53.382882
     ],
     [
      -1.80076,
      53.382895
     ],
     [
      -1.8005,
      53.3829
     ],
     [
      -1.800237,
      53.382895
     ],
     [
      -1.79997,
      53.382882
     ],
     [
      -1.799701,
      53.382859
     ],
     [
      -1.799429,
      53.382828
     ],
     [
      -1.799155,
      53.382788
     ],
     [
      -1.798877,
      53.382739
     ],
     [
      -1.798597,
      53.382682
     ],
     [
      -1.798315,
      53.382616
     ],
     [
      -1.79803,
      53.382543
     ],
     [
      -1.797743,
      53.382462
     ],
     [
      -1.797454,
      53.382374
     ],
     [
      -1.797163,
      53.382279
     ],
     [
      -1.79687,
      53.382178
     ],
     [
      -1.796575,
      53.382071
     ],
     [
      -1.796279,
      53.381957
     ],
     [
      -1.795981,
      53.381839
     ],
     [
      -1.795681,
      53.381716
     ],
     [
      -1.795381,
      53.381589
     ],
     [
      -1.795079,
      53.381458
     ],
     [
      -1.794777,
      53.381323
     ],
     [
      -1.794474,
      53.381186
     ],
     [
      -1.79417,
      53.381047
     ],
     [
      -1.793866,
      53.380906
     ],
     [
      -1.793562,
      53.380763
     ],
     [
      -1.793257,
      53.38062
     ],
     [
      -1.792953,
      53.380477
     ],
     [
      -1.792649,
      53.380334
     ],
     [
      -1.792346,
      53.380192
     ],
     [
      -1.792043,
      53.380051
     ],
     [
      -1.791741,
      53.379912
     ],
     [
      -1.79144,
      53.379775
     ],
     [
      -1.79114,
      53.37964
     ],
     [
      -1.790842,
      53.379508
     ],
     [
      -1.790545,
      53.379379
     ],
     [
      -1.79025,
      53.379254
     ],
     [
      -1.789957,
      53.379133
     ],
     [
      -1.789666,
      53.379015
     ],
     [
      -1.789378,
      53.378902
     ],
     [
      -1.789091,
      53.378793
     ],
     [
      -1.788808,
      53.378689
     ],
     [
      -1.788528,
      53.378589
     ],
     [
      -1.78825,
      53.378495
     ],
     [
      -1.787976,
      53.378405
     ],
     [
      -1.787705,
      53.37832
     ],
     [
      -1.787438,
      53.378239
     ],
     [
      -1.787175,
      53.378164
     ],
     [
      -1.786915,
      53.378093
     ],
     [
      -1.78666,
      53.378026
     ],
     [
      -1.786409,
      53.377964
     ],
     [
      -1.786162,
      53.377906
     ],
     [
      -1.785919,
      53.377851
     ],
     [
      -1.785682,
      53.3778
     ],
     [
      -1.785449,
      53.377753
     ],
     [
      -1.785221,
      53.377708
     ],
     [
      -1.784999,
      53.377666
     ],
     [
      -1.784781,
      53.377626
     ],
     [
      -1.784569,
      53.377588
     ],
     [
      -1.784363,
      53.377551
     ],
     [
      -1.784162,
      53.377515
     ],
     [
      -1.783966,
      53.37748
     ],
     [
      -1.783777,
      53.377444
     ],
     [
      -1.783593,
      53.377408
     ],
     [
      -1.783416,
      53.377372
     ],
     [
      -1.783244,
      53.377334
     ],
     [
      -1.783078,
      53.377294
     ],
     [
      -1.782919,
      53.377251
     ],
     [
      -1.782766,
      53.377206
     ],
     [
      -1.782619,
      53.377158
     ],
     [
      -1.782479,
      53.377106
     ],
     [
      -1.782345,
      53.37705
     ],
     [
      -1.782217,
      53.376989
     ],
     [
      -1.782096,
      53.376924
     ],
     [
      -1.781981,
      53.376853
     ],
     [
      -1.781873,
      53.376776
     ],
     [
      -1.781771,
      53.376694
     ],
     [
      -1.781675,
      53.376605
     ],
     [
      -1.781586,
      53.37651
     ],
     [
      -1.781504,
      53.376408
     ],
     [
      -1.781428,
      53.376299
     ],
     [
      -1.781358,
      53.376183
     ],
     [
      -1.781295,
      53.376059
     ],
     [
      -1.781238,
      53.375929
     ],
     [
      -1.781187,
      53.37579
     ],
     [
      -1.781143,
      53.375645
     ],
     [
      -1.781105,
      53.375492
     ],
     [
      -1.781073,
      53.375331
     ],
     [
      -1.781046,
      53.375163
     ],
     [
      -1.781026,
      53.374988
     ],
     [
      -1.781012,
      53.374806
     ],
     [
      -1.781004,
      53.374618
     ],
     [
      -1.781001,
      53.374422
     ],
     [
      -1.781004,
      53.374221
     ],
     [
      -1.781012,
      53.374013
     ],
     [
      -1.781026,
      53.3738
     ],
     [
      -1.781045,
      53.373581
     ],
     [
      -1.781069,
      53.373358
     ],
     [
      -1.781098,
      53.37313
     ],
     [
      -1.781132,
      53.372898
     ],
     [
      -1.781171,
      53.372662
     ],
     [
      -1.781215,
      53.372423
     ],
     [
      -1.781263,
      53.372182
     ],
     [
      -1.781316,
      53.371938
     ],
     [
      -1.781373,
      53.371693
     ],
     [
      -1.781435,
      53.371447
     ],
     [
      -1.7815,
      53.3712
     ],
     [
      -1.781569,
      53.370953
     ],
     [
      -1.781642,
      53.370707
     ],
     [
      -1.781719,
      53.370462
     ],
     [
      -1.781799,
      53.370218
     ],
     [
      -1.781883,
      53.369977
     ],
     [
      -1.78197,
      53.369738
     ],
     [
      -1.782059,
      53.369502
     ],
     [
      -1.782152,
      53.36927
     ],
     [
      -1.782248,
      53.369042
     ],
     [
      -1.782346,
      53.368819
     ],
     [
      -1.782447,
      53.3686
     ],
     [
      -1.782551,
      53.368387
     ],
     [
      -1.782656,
      53.368179
     ],
     [
      -1.782764,
      53.367978
     ],
     [
      -1.782874,
      53.367782
     ],
     [
      -1.782986,
      53.367594
     ],
     [
      -1.783099,
      53.367412
     ],
     [
      -1.783215,
      53.367237
     ],
     [
      -1.783332,
      53.367069
     ],
     [
      -1.78345,
      53.366908
     ],
     [
      -1.78357,
      53.366755
     ],
     [
      -1.783691,
      53.36661
     ],
     [
      -1.783813,
      53.366471
     ],
     [
      -1.783937,
      53.366341
     ],
     [
      -1.784061,
      53.366217
     ],
     [
      -1.784186,
      53.366101
     ],
     [
      -1.784313,
      53.365992
     ],
     [
      -1.78444,
      53.36589
     ],
     [
      -1.784567,
      53.365795
     ],
     [
      -1.784695,
      53.365706
     ],
     [
      -1.784824,
      53.365624
     ],
     [
      -1.784954,
      53.365547
     ],
     [
      -1.785084,
      53.365476
     ],
     [
      -1.785214,
      53.365411
     ],
     [
      -1.785345,
      53.36535
     ],
     [
      -1.785476,
      53.365294
     ],
     [
      -1.785607,
      53.365242
     ],
     [
      -1.785739,
      53.365194
     ],
     [
      -1.785871,
      53.365149
     ],
     [
      -1.786003,
      53.365106
     ],
     [
      -1.786136,
      53.365066
     ],
     [
      -1.786269,
      53.365028
     ],
     [
      -1.786402,
      53.364992
     ],
     [
      -1.786536,
      53.364956
     ],
     [
      -1.786669,
      53.36492
     ],
     [
      -1.786804,
      53.364885
     ],
     [
      -1.786938,
      53.364849
     ],
     [
      -1.787073,
      53.364812
     ],
     [
      -1.787208,
      53.364774
     ],
     [
      -1.787344,
      53.364734
     ],
     [
      -1.787481,
      53.364692
     ],
     [
      -1.787618,
      53.364647
     ],
     [
      -1.787755,
      53.3646
     ],
     [
      -1.787893,
      53.364549
     ],
     [
      -1.788032,
      53.364494
     ],
     [
      -1.788172,
      53.364436
     ],
     [
      -1.788312,
      53.364374
     ],
     [
      -1.788454,
      53.364307
     ],
     [
      -1.788596,
      53.364236
     ],
     [
      -1.78874,
      53.364161
     ],
     [
      -1.788884,
      53.36408
     ],
     [
      -1.78903,
      53.363995
     ],
     [
      -1.789177,
      53.363905
     ],
     [
      -1.789326,
      53.363811
     ],
     [
      -1.789476,
      53.363711
     ],
     [
      -1.789627,
      53.363607
     ],
     [
      -1.78978,
      53.363498
     ],
     [
      -1.789935,
      53.363385
     ],
     [
      -1.790092,
      53.363267
     ],
     [
      -1.79025,
      53.363146
     ],
     [
      -1.79041,
      53.363021
     ],
     [
      -1.790573,
      53.362892
     ],
     [
      -1.790737,
      53.36276
     ],
     [
      -1.790904,
      53.362625
     ],
     [
      -1.791073,
      53.362488
     ],
     [
      -1.791245,
      53.362349
     ],
     [
      -1.791419,
      53.362208
     ],
     [
      -1.791595,
      53.362066
     ],
     [
      -1.791774,
      53.361923
     ],
     [
      -1.791956,
      53.36178
     ],
     [
      -1.79214,
      53.361637
     ],
     [
      -1.792327,
      53.361494
     ],
     [
      -1.792517,
      53.361353
     ],
     [
      -1.792711,
      53.361214
     ],
     [
      -1.792907,
      53.361077
     ],
     [
      -1.793106,
      53.360942
     ],
     [
      -1.793308,
      53.360811
     ],
     [
      -1.793513,
      53.360684
     ],
     [
      -1.793721,
      53.360561
     ],
     [
      -1.793933,
      53.360443
     ],
     [
      -1.794148,
      53.360329
     ],
     [
      -1.794366,
      53.360222
     ],
     [
      -1.794588,
      53.360121
     ],
     [
      -1.794812,
      53.360026
     ],
     [
      -1.79504,
      53.359938
     ],
     [
      -1.795272,
      53.359857
     ],
     [
      -1.795506,
      53.359784
     ],
     [
      -1.795744,
      53.359718
     ],
     [
      -1.795985,
      53.359661
     ],
     [
      -1.79623,
      53.359612
     ],
     [
      -1.796478,
      53.359572
     ],
     [
      -1.796728,
      53.359541
     ],
     [
      -1.796983,
      53.359518
     ],
     [
      -1.79724,
      53.359505
     ],
     [
      -1.7975,
      53.3595
     ],
     [
      -1.797763,
      53.359505
     ],
     [
      -1.79803,
      53.359518
     ],
     [
      -1.798299,
      53.359541
     ],
     [
      -1.798571,
      53.359572
     ],
     [
      -1.798845,
      53.359612
     ],
     [
      -1.799123,
      53.359661
     ],
     [
      -1.799403,
      53.359718
     ],
     [
      -1.799685,
      53.359784
     ],
     [
      -1.79997,
      53.359857
     ],
     [
      -1.800257,
      53.359938
     ],
     [
      -1.800546,
      53.360026
     ],
     [
      -1.800837,
      53.360121
     ],
     [
      -1.80113,
      53.360222
     ],
     [
      -1.801425,
      53.360329
     ],
     [
      -1.801721,
      53.360443
     ],
     [
      -1.802019,
      53.360561
     ],
     [
      -1.802319,
      53.360684
     ],
     [
      -1.802619,
      53.360811
     ],
     [
      -1.802921,
      53.360942
     ],
     [
      -1.803223,
      53.361077
     ],
     [
      -1.803526,
      53.361214
     ],
     [
      -1.80383,
      53.361353
     ],
     [
      -1.804134,
      53.361494
     ],
     [
      -1.804438,
      53.361637
     ],
     [
      -1.804743,
      53.36178
     ],
     [
      -1.805047,
      53.361923
     ],
     [
      -1.805351,
      53.362066
     ],
     [
      -1.805654,
      53.362208
     ],
     [
      -1.805957,
      53.362349
     ],
     [
      -1.806259,
      53.362488
     ],
     [
      -1.80656,
      53.362625
     ],
     [
      -1.80686,
      53.36276
     ],
     [
      -1.807158,
      53.362892
     ],
     [
      -1.807455,
      53.363021
     ],
     [
      -1.80775,
      53.363146
     ],
     [
      -1.808043,
      53.363267
     ],
     [
      -1.808334,
      53.363385
     ],
     [
      -1.808622,
      53.363498
     ],
     [
      -1.808909,
      53.363607
     ],
     [
      -1.809192,
      53.363711
     ],
     [
      -1.809472,
      53.363811
     ],
     [
      -1.80975,
      53.363905
     ],
     [
      -1.810024,
      53.363995
     ],
     [
      -1.810295,
      53.36408
     ],
     [
      -1.810562,
      53.364161
     ],
     [
      -1.810825,
      53.364236
     ],
     [
      -1.811085,
      53.364307
     ],
     [
      -1.81134,
      53.364374
     ],
     [
      -1.811591,
      53.364436
     ],
     [
      -1.811838,
      53.364494
     ],
     [
      -1.812081,
      53.364549
     ],
     [
      -1.812318,
      53.3646
     ],
     [
      -1.812551,
      53.364647
     ],
     [
      -1.812779,
      53.364692
     ],
     [
      -1.813001,
      53.364734
     ],
     [
      -1.813219,
      53.364774
     ],
     [
      -1.813431,
      53.364812
     ],
     [
      -1.813637,
      53.364849
     ],
     [
      -1.813838,
      53.364885
     ],
     [
      -1.814034,
      53.36492
     ],
     [
      -1.814223,
      53.364956
     ],
     [
      -1.814407,
      53.364992
     ],
     [
      -1.814584,
      53.365028
     ],
     [
      -1.814756,
      53.365066
     ],
     [
      -1.814922,
      53.365106
     ],
     [
      -1.815081,
      53.365149
     ],
     [
      -1.815234,
      53.365194
     ],
     [
      -1.815381,
      53.365242
     ],
     [
      -1.815521,
      53.365294
     ],
     [
      -1.815655,
      53.36535
     ],
     [
      -1.815783,
      53.365411
     ],
     [
      -1.815904,
      53.365476
     ],
     [
      -1.816019,
      53.365547
     ],
     [
      -1.816127,
      53.365624
     ],
     [
      -1.816229,
      53.365706
     ],
     [
      -1.816325,
      53.365795
     ],
     [
      -1.816414,
      53.36589
     ],
     [
      -1.816496,
      53.365992
     ],
     [
      -1.816572,
      53.366101
     ],
     [
      -1.816642,
      53.366217
     ],
     [
      -1.816705,
      53.366341
     ],
     [
      -1.816762,
      53.366471
     ],
     [
      -1.816813,
      53.36661
     ],
     [
      -1.816857,
      53.366755
     ],
     [
      -1.816895,
      53.366908
     ],
     [
      -1.816927,
      53.367069
     ],
     [
      -1.816954,
      53.367237
     ],
     [
      -1.816974,
      53.367412
     ],
     [
      -1.816988,
      53.367594
     ],
     [
      -1.816996,
      53.367782
     ],
     [
      -1.816999,
      53.367978
     ],
     [
      -1.816996,
      53.368179
     ],
     [
      -1.816988,
      53.368387
     ],
     [
      -1.816974,
      53.3686
     ],
     [
      -1.816955,
      53.368819
     ],
     [
      -1.816931,
      53.369042
     ],
     [
      -1.816902,
      53.36927
     ],
     [
      -1.816868,
      53.369502
     ],
     [
      -1.816829,
      53.369738
     ],
     [
      -1.816785,
      53.369977
     ],
     [
      -1.816737,
      53.370218
     ],
     [
      -1.816684,
      53.370462
     ],
     [
      -1.816627,
      53.370707
     ],
     [
      -1.816565,
      53.370953
     ],
     [
      -1.8165,
      53.3712
     ]
    ]
   }
  },
  {
   "type": "Feature",
   "properties": {
    "time": "2026-10-08T10:02:11+01:00",
    "title": "car park ground condition",
    "kinds": [
     "hazard"
    ],
    "summary": "hazard: ground; hazard: path",
    "transcript": "Okay, starting from the car park. Ground is soaked from last night, the path by the first gate is basically a pond.",
    "file": "Recording_20261008_100211.m4a"
   },
   "geometry": {
    "type": "Point",
    "coordinates": [
     -1.815755,
     53.37335
    ]
   }
  },
  {
   "type": "Feature",
   "properties": {
    "time": "2026-10-08T10:19:40+01:00",
    "title": "buzzards circling ridge",
    "kinds": [
     "seen"
    ],
    "summary": "seen: buzzard",
    "transcript": "Two buzzards circling over the ridge. Maybe three, hard to tell, they keep dropping behind the trees.",
    "file": "Recording_20261008_101940.m4a"
   },
   "geometry": {
    "type": "Point",
    "coordinates": [
     -1.806254,
     53.380454
    ]
   }
  },
  {
   "type": "Feature",
   "properties": {
    "time": "2026-10-08T10:41:05+01:00",
    "title": "Field Notes and Task",
    "kinds": [
     "todo"
    ],
    "summary": "todo: stile",
    "transcript": "Note to self the style after the second field has a broken step. Report it to the council rights of way team when I get home.",
    "file": "Recording_20261008_104105.m4a"
   },
   "geometry": {
    "type": "Point",
    "coordinates": [
     -1.784054,
     53.377496
    ]
   }
  },
  {
   "type": "Feature",
   "properties": {
    "time": "2026-10-08T10:58:30+01:00",
    "title": "fly agaric under birch",
    "kinds": [
     "seen"
    ],
    "summary": "seen: fly agaric x12",
    "transcript": "Loads of fly agaric under the birch is here. Must be a dozen red caps. Do you not let the dog near them?",
    "file": "New Recording 4.m4a"
   },
   "geometry": {
    "type": "Point",
    "coordinates": [
     -1.78396,
     53.366318
    ]
   }
  },
  {
   "type": "Feature",
   "properties": {
    "time": "2026-10-08T11:12:02+01:00",
    "title": "green woodpecker call",
    "kinds": [
     "heard"
    ],
    "summary": "heard: green woodpecker",
    "transcript": "Heard a green woodpecker that laughing call, didn't see it though.",
    "file": "Recording_20261008_111202.m4a"
   },
   "geometry": {
    "type": "Point",
    "coordinates": [
     -1.791637,
     53.362032
    ]
   }
  },
  {
   "type": "Feature",
   "properties": {
    "time": "2026-10-08T11:37:48+01:00",
    "title": "blackberry condition and future collection",
    "kinds": [
     "seen",
     "todo"
    ],
    "summary": "seen: blackberry; todo: tub",
    "transcript": "Blackberries still on the hedge by the lane, but most on mushy now. Come back with a tub in early September next year.",
    "file": "Recording_20261008_113748.m4a"
   },
   "geometry": {
    "type": "Point",
    "coordinates": [
     -1.81636,
     53.365832
    ]
   }
  }
 ]
}